NORAD_CAT_ID,OBJECT_NAME,OBJECT_TYPE,EPOCH,MEAN_MOTION,ECCENTRICITY,INCLINATION,RA_OF_ASC_NODE,ARG_OF_PERICENTER,MEAN_ANOMALY,BSTAR,MEAN_MOTION_DOT,MEAN_MOTION_DDOT,TLE_LINE0,TLE_LINE1,TLE_LINE2,SEMIMAJOR_AXIS,PERIOD,APOGEE,PERIGEE,DECAYED
56480.0,STARLINK-6214,PAYLOAD,2024-06-08 15:12:05,14.98350087,0.0003419,70.0017,295.7907,268.682,91.3947,0.0014684,0.00017481,0.0,0 STARLINK-6214,1 56480U 23064AJ  24160.63340044  .00017481  00000-0  14684-2 0  9991,2 56480  70.0017 295.7907 0003419 268.6820  91.3947 14.98350087 60013,6950.131,96.106,574.372,569.62,0.0
56480.0,STARLINK-6214,PAYLOAD,2024-06-08 18:24:21,14.98355384,0.0003426,70.0016,295.454,268.8387,91.238,0.0015221,0.00018128,0.0,0 STARLINK-6214,1 56480U 23064AJ  24160.76691824  .00018128  00000-0  15221-2 0  9997,2 56480  70.0016 295.4540 0003426 268.8387  91.2380 14.98355384 60396,6950.114,96.105,574.361,569.598,0.0
56480.0,STARLINK-6214,PAYLOAD,2024-06-09 02:25:02,14.98345371,0.0003183,70.0017,294.6122,276.8439,83.2358,0.00065016,7.676e-05,0.0,0 STARLINK-6214,1 56480U 23064AJ  24161.10071868  .00007676  00000-0  65016-3 0  9990,2 56480  70.0017 294.6122 0003183 276.8439  83.2358 14.98345371 60448,6950.145,96.106,574.223,569.798,0.0
56480.0,STARLINK-6214,PAYLOAD,2024-06-09 12:01:50,14.98329256,0.0003445,70.0017,293.6026,273.0008,87.0757,-0.00016358,-2.044e-05,0.0,0 STARLINK-6214,1 56480U 23064AJ  24161.50128026 -.00002044  00000-0 -16358-3 0  9994,2 56480  70.0017 293.6026 0003445 273.0008  87.0757 14.98329256 60508,6950.195,96.107,574.455,569.666,0.0
56480.0,STARLINK-6214,PAYLOAD,2024-06-09 15:14:06,14.98332391,0.0003412,70.0018,293.2657,272.7147,87.3621,0.00017093,1.947e-05,0.0,0 STARLINK-6214,1 56480U 23064AJ  24161.63480029  .00001947  00000-0  17093-3 0  9998,2 56480  70.0018 293.2657 0003412 272.7147  87.3621 14.98332391 60168,6950.185,96.107,574.422,569.679,0.0
56480.0,STARLINK-6214,PAYLOAD,2024-06-09 18:26:22,14.98335124,0.0003402,70.0017,292.9289,272.7471,87.3299,0.00052479,6.175e-05,0.0,0 STARLINK-6214,1 56480U 23064AJ  24161.76832054  .00006175  00000-0  52479-3 0  9996,2 56480  70.0017 292.9289 0003402 272.7471  87.3299 14.98335124 60183,6950.177,96.107,574.406,569.678,0.0
56480.0,STARLINK-6214,PAYLOAD,2024-06-10 13:39:59,14.98336835,0.0003515,70.0022,290.91,275.2187,84.8571,0.00082247,9.736e-05,0.0,0 STARLINK-6214,1 56480U 23064AJ  24162.56944275  .00009736  00000-0  82247-3 0  9996,2 56480  70.0022 290.9100 0003515 275.2187  84.8571 14.98336835 60664,6950.172,96.107,574.48,569.594,0.0
56480.0,STARLINK-6214,PAYLOAD,2024-06-10 15:16:07,14.983407,0.000348,70.0022,290.7409,274.0083,86.0678,0.00091885,0.00010891,0.0,0 STARLINK-6214,1 56480U 23064AJ  24162.63620151  .00010891  00000-0  91885-3 0  9990,2 56480  70.0022 290.7409 0003480 274.0083  86.0678 14.98340700 60317,6950.16,96.106,574.443,569.606,0.0
56480.0,STARLINK-6214,PAYLOAD,2024-06-10 18:28:23,14.98343476,0.0003506,70.0022,290.4043,274.0113,86.0645,0.00091652,0.00010864,0.0,0 STARLINK-6214,1 56480U 23064AJ  24162.76972051  .00010864  00000-0  91652-3 0  9995,2 56480  70.0022 290.4043 0003506 274.0113  86.0645 14.98343476 60330,6950.151,96.106,574.453,569.579,0.0
56480.0,STARLINK-6214,PAYLOAD,2024-06-11 13:42:00,14.98335415,0.0003411,70.002,288.3848,274.1389,85.938,0.00029344,3.411e-05,0.0,0 STARLINK-6214,1 56480U 23064AJ  24163.57084075  .00003411  00000-0  29344-3 0  9994,2 56480  70.0020 288.3848 0003411 274.1389  85.9380 14.98335415 60459,6950.176,96.107,574.412,569.67,0.0
56480.0,STARLINK-6214,PAYLOAD,2024-06-11 18:30:24,14.98344198,0.000338,70.002,287.8799,273.9335,86.1438,0.00044275,5.196e-05,0.0,0 STARLINK-6214,1 56480U 23064AJ  24163.77111629  .00005196  00000-0  44275-3 0  9994,2 56480  70.0020 287.8799 0003380 273.9335  86.1438 14.98344198 60849,6950.149,96.106,574.363,569.665,0.0
56480.0,STARLINK-6214,PAYLOAD,2024-06-12 12:07:53,14.98325057,0.0003317,70.0018,286.0286,272.7975,87.2805,-9.8962e-05,-1.273e-05,0.0,0 STARLINK-6214,1 56480U 23064AJ  24164.50548415 -.00001273  00000-0 -98962-4 0  9990,2 56480  70.0018 286.0286 0003317 272.7975  87.2805 14.98325057 60950,6950.208,96.107,574.379,569.768,0.0
56480.0,STARLINK-6214,PAYLOAD,2024-06-12 18:32:26,14.98326822,0.0003224,70.0008,285.3569,265.2599,94.8192,-3.0303e-05,-4.55e-06,0.0,0 STARLINK-6214,1 56480U 23064AJ  24164.77252687 -.00000455  00000-0 -30303-4 0  9998,2 56480  70.0008 285.3569 0003224 265.2599  94.8192 14.98326822 60630,6950.203,96.107,574.308,569.827,0.0
56480.0,STARLINK-6214,PAYLOAD,2024-06-13 13:46:02,14.98336334,0.0003368,70.0003,283.3354,267.3895,92.6878,0.00013675,1.539e-05,0.0,0 STARLINK-6214,1 56480U 23064AJ  24165.57363809  .00001539  00000-0  13675-3 0  9990,2 56480  70.0003 283.3354 0003368 267.3895  92.6878 14.98336334 61116,6950.173,96.107,574.379,569.697,0.0
56480.0,STARLINK-6214,PAYLOAD,2024-06-13 16:58:18,14.98339034,0.0003242,70.0006,282.9996,265.941,94.1379,0.00010564,1.168e-05,0.0,0 STARLINK-6214,1 56480U 23064AJ  24165.70715635  .00001168  00000-0  10564-3 0  9995,2 56480  70.0006 282.9996 0003242 265.9410  94.1379 14.98339034 60778,6950.165,96.106,574.283,569.777,0.0
56480.0,STARLINK-6214,PAYLOAD,2024-06-14 13:48:03,14.98323881,0.00033,70.0005,280.8119,268.1445,91.9336,0.0001498,1.695e-05,0.0,0 STARLINK-6214,1 56480U 23064AJ  24166.57504612  .00001695  00000-0  14980-3 0  9993,2 56480  70.0005 280.8119 0003300 268.1445  91.9336 14.98323881 60905,6950.212,96.107,574.37,569.783,0.0
56480.0,STARLINK-6214,PAYLOAD,2024-06-14 17:00:19,14.98327398,0.0003236,70.0005,280.475,268.1077,91.9711,0.00015469,1.753e-05,0.0,0 STARLINK-6214,1 56480U 23064AJ  24166.70856429  .00001753  00000-0  15469-3 0  9992,2 56480  70.0005 280.4750 0003236 268.1077  91.9711 14.98327398 60927,6950.201,96.107,574.315,569.817,0.0
56480.0,STARLINK-6214,PAYLOAD,2024-06-15 13:50:04,14.98339542,0.0003435,70.0004,278.2866,270.2783,89.7982,0.00013352,1.501e-05,0.0,0 STARLINK-6214,1 56480U 23064AJ  24167.57643543  .00001501  00000-0  13352-3 0  9999,2 56480  70.0004 278.2866 0003435 270.2783  89.7982 14.98339542 61052,6950.163,96.106,574.416,569.641,0.0
56480.0,STARLINK-6214,PAYLOAD,2024-06-15 17:02:19,14.98342176,0.0003326,70.0001,277.9497,268.236,91.8418,0.00014506,1.639e-05,0.0,0 STARLINK-6214,1 56480U 23064AJ  24167.70995280  .00001639  00000-0  14506-3 0  9996,2 56480  70.0001 277.9497 0003326 268.2360  91.8418 14.98342176 61079,6950.155,96.106,574.332,569.709,0.0
56480.0,STARLINK-6214,PAYLOAD,2024-06-16 13:52:05,14.9833327,0.0003367,69.9998,275.7612,270.0377,90.0396,0.00011057,1.227e-05,0.0,0 STARLINK-6214,1 56480U 23064AJ  24168.57783714  .00001227  00000-0  11057-3 0  9990,2 56480  69.9998 275.7612 0003367 270.0377  90.0396 14.98333270 61206,6950.183,96.107,574.388,569.708,0.0
56480.0,STARLINK-6214,PAYLOAD,2024-06-16 17:04:21,14.98311792,0.0003187,69.9999,275.4246,269.9318,90.1476,0.00064954,7.662e-05,0.0,0 STARLINK-6214,1 56480U 23064AJ  24168.71136311  .00007662  00000-0  64954-3 0  9994,2 56480  69.9999 275.4246 0003187 269.9318  90.1476 14.98311792 61226,6950.249,96.108,574.329,569.899,0.0
56480.0,STARLINK-6214,PAYLOAD,2024-06-17 13:54:05,14.9833947,0.0003159,70.0005,273.2359,265.3356,94.7442,8.6588e-05,9.41e-06,0.0,0 STARLINK-6214,1 56480U 23064AJ  24169.57922870  .00000941  00000-0  86588-4 0  9993,2 56480  70.0005 273.2359 0003159 265.3356  94.7442 14.98339470 61359,6950.164,96.106,574.224,569.833,0.0
56480.0,STARLINK-6214,PAYLOAD,2024-06-18 10:43:50,14.98329095,0.0003262,70.0002,271.0481,268.7509,91.3277,4.2853e-06,-4.2e-07,0.0,0 STARLINK-6214,1 56480U 23064AJ  24170.44711509 -.00000042  00000-0  42853-5 0  9997,2 56480  70.0002 271.0481 0003262 268.7509  91.3277 14.98329095 61845,6950.196,96.107,574.328,569.794,0.0
56480.0,STARLINK-6214,PAYLOAD,2024-06-18 13:56:06,14.98329578,0.0003307,70.0001,270.7115,268.2895,91.7886,-9.6715e-06,-2.08e-06,0.0,0 STARLINK-6214,1 56480U 23064AJ  24170.58063481 -.00000208  00000-0 -96715-5 0  9992,2 56480  70.0001 270.7115 0003307 268.2895  91.7886 14.98329578 61506,6950.194,96.107,574.358,569.761,0.0
56480.0,STARLINK-6214,PAYLOAD,2024-06-18 15:32:14,14.98330165,0.0003302,70.0001,270.5432,268.3787,91.6994,-4.4332e-06,-1.46e-06,0.0,0 STARLINK-6214,1 56480U 23064AJ  24170.64739420 -.00000146  00000-0 -44332-5 0  9991,2 56480  70.0001 270.5432 0003302 268.3787  91.6994 14.98330165 61516,6950.192,96.107,574.352,569.762,0.0
56480.0,STARLINK-6214,PAYLOAD,2024-06-19 12:21:59,14.98329206,0.0003303,69.9999,268.355,268.0758,92.0023,-1.8044e-05,-3.08e-06,0.0,0 STARLINK-6214,1 56480U 23064AJ  24171.51527498 -.00000308  00000-0 -18044-4 0  9998,2 56480  69.9999 268.3550 0003303 268.0758  92.0023 14.98329206 62008,6950.195,96.107,574.356,569.765,0.0
56480.0,STARLINK-6214,PAYLOAD,2024-06-19 13:58:07,14.98328687,0.0003296,70.0,268.1869,267.3329,92.7453,-3.1438e-05,-4.68e-06,0.0,0 STARLINK-6214,1 56480U 23064AJ  24171.58203565 -.00000468  00000-0 -31438-4 0  9990,2 56480  70.0000 268.1869 0003296 267.3329  92.7453 14.98328687 61658,6950.197,96.107,574.353,569.771,0.0
56480.0,STARLINK-6214,PAYLOAD,2024-06-19 15:34:15,14.98329099,0.0003288,70.0,268.0186,267.4879,92.5903,-2.6962e-05,-4.15e-06,0.0,0 STARLINK-6214,1 56480U 23064AJ  24171.64879531 -.00000415  00000-0 -26962-4 0  9997,2 56480  70.0000 268.0186 0003288 267.4879  92.5903 14.98329099 61668,6950.196,96.107,574.346,569.775,0.0
56480.0,STARLINK-6214,PAYLOAD,2024-06-20 14:00:08,14.98326987,0.0003323,69.9998,265.6615,266.777,93.3008,5.6855e-05,5.85e-06,0.0,0 STARLINK-6214,1 56480U 23064AJ  24172.58343643  .00000585  00000-0  56855-4 0  9991,2 56480  69.9998 265.6615 0003323 266.7770  93.3008 14.98326987 61807,6950.202,96.107,574.377,569.758,0.0
56480.0,STARLINK-6214,PAYLOAD,2024-06-20 15:36:16,14.98327981,0.000332,69.9998,265.4932,267.051,93.0269,6.7002e-05,7.06e-06,0.0,0 STARLINK-6214,1 56480U 23064AJ  24172.65019571  .00000706  00000-0  67002-4 0  9990,2 56480  69.9998 265.4932 0003320 267.0510  93.0269 14.98327981 62172,6950.199,96.107,574.372,569.757,0.0
